[Satellite]
VERSION=1.1
NAME=GOMX 1
NICKNAME=GOMX 1
TLE1=1 39430U 13066Q   20158.21796839  .00000141  00000-0  34763-4 0  9999
TLE2=2 39430  97.7897  97.4250 0149942 219.6391 139.3781 14.59399257348163
STATUS=0
